start=new Date('2023-04-07T00:00:00.000Z').valueOf();
sats=[{"PERIOD":"91.640","DECAY_DATE":null,"CENTER_NAME":"EARTH","MEAN_ANOMALY":"123.5420","MEAN_ELEMENT_THEORY":"SGP4","REF_FRAME":"TEME","FILE":"3882049","MEAN_MOTION":"15.71366806","TLE_LINE1":"1 56119U 23046AC  23096.91667824  .00001479  00000-0  14719-4 0  9997","EPOCH":"2023-04-06T22:00:00.999936","LAUNCH_DATE":"2023-03-29","MEAN_MOTION_DDOT":"0.0000000000000","EPHEMERIS_TYPE":"0","ECCENTRICITY":"0.00018250","TLE_LINE2":"2 56119  43.0016 215.2421 0001825 275.5188 123.5420 15.71366806  1301","RCS_SIZE":null,"PERIAPSIS":"353.763","OBJECT_TYPE":"PAYLOAD","GP_ID":"229647647","ELEMENT_SET_NO":"999","TIME_SYSTEM":"UTC","OBJECT_ID":"2023-046AC","REV_AT_EPOCH":"130","RA_OF_ASC_NODE":"215.2421","COUNTRY_CODE":"US","SITE":"AFETR","OBJECT_NAME":"STARLINK-6091","APOAPSIS":"356.221","INCLINATION":"43.0016","MEAN_MOTION_DOT":"0.00001479","SEMIMAJOR_AXIS":"6733.127","ARG_OF_PERICENTER":"275.5188","NORAD_CAT_ID":"56119","CLASSIFICATION_TYPE":"U","BSTAR":"0.00001471900000"},{"LAUNCH_DATE":"2023-03-29","EPOCH":"2023-04-06T22:00:00.999936","RCS_SIZE":null,"ECCENTRICITY":"0.00015880","TLE_LINE2":"2 56120  43.0022 215.2478 0001588 278.4344 118.2485 15.71360226  1306","EPHEMERIS_TYPE":"0","MEAN_MOTION_DDOT":"0.0000000000000","REF_FRAME":"TEME","MEAN_ELEMENT_THEORY":"SGP4","MEAN_ANOMALY":"118.2485","CENTER_NAME":"EARTH","PERIOD":"91.640","DECAY_DATE":null,"TLE_LINE1":"1 56120U 23046AD  23096.91667824  .00010603  00000-0  84179-4 0  9995","MEAN_MOTION":"15.71360226","FILE":"3882049","MEAN_MOTION_DOT":"0.00010603","SEMIMAJOR_AXIS":"6733.146","APOAPSIS":"356.080","INCLINATION":"43.0022","SITE":"AFETR","OBJECT_NAME":"STARLINK-6079","RA_OF_ASC_NODE":"215.2478","COUNTRY_CODE":"US","BSTAR":"0.00008417900000","CLASSIFICATION_TYPE":"U","NORAD_CAT_ID":"56120","ARG_OF_PERICENTER":"278.4344","GP_ID":"229647566","ELEMENT_SET_NO":"999","OBJECT_TYPE":"PAYLOAD","PERIAPSIS":"353.941","REV_AT_EPOCH":"130","OBJECT_ID":"2023-046AD","TIME_SYSTEM":"UTC"},{"SITE":"AFETR","OBJECT_NAME":"STARLINK-6092","COUNTRY_CODE":"US","RA_OF_ASC_NODE":"215.2438","MEAN_MOTION_DOT":"0.00008077","SEMIMAJOR_AXIS":"6733.141","APOAPSIS":"356.218","INCLINATION":"43.0021","ARG_OF_PERICENTER":"276.3419","BSTAR":"0.00006496000000","NORAD_CAT_ID":"56121","CLASSIFICATION_TYPE":"U","PERIAPSIS":"353.793","GP_ID":"229647488","ELEMENT_SET_NO":"999","OBJECT_TYPE":"PAYLOAD","TIME_SYSTEM":"UTC","OBJECT_ID":"2023-046AE","REV_AT_EPOCH":"130","EPOCH":"2023-04-06T22:00:00.999936","LAUNCH_DATE":"2023-03-29","TLE_LINE2":"2 56121  43.0021 215.2438 0001801 276.3419 122.1266 15.71361892  1301","ECCENTRICITY":"0.00018010","EPHEMERIS_TYPE":"0","MEAN_MOTION_DDOT":"0.0000000000000","RCS_SIZE":null,"PERIOD":"91.640","DECAY_DATE":null,"REF_FRAME":"TEME","MEAN_ANOMALY":"122.1266","MEAN_ELEMENT_THEORY":"SGP4","CENTER_NAME":"EARTH","MEAN_MOTION":"15.71361892","FILE":"3882049","TLE_LINE1":"1 56121U 23046AE  23096.91667824  .00008077  00000-0  64960-4 0  9994"},{"TLE_LINE1":"1 56122U 23046AF  23096.91667824  .00008430  00000-0  67646-4 0  9992","FILE":"3882049","MEAN_MOTION":"15.71363006","CENTER_NAME":"EARTH","MEAN_ANOMALY":"122.9576","MEAN_ELEMENT_THEORY":"SGP4","REF_FRAME":"TEME","PERIOD":"91.640","DECAY_DATE":null,"RCS_SIZE":null,"EPHEMERIS_TYPE":"0","MEAN_MOTION_DDOT":"0.0000000000000","ECCENTRICITY":"0.00021360","TLE_LINE2":"2 56122  43.0017 215.2492 0002136 273.1268 122.9576 15.71363006  1307","LAUNCH_DATE":"2023-03-29","EPOCH":"2023-04-06T22:00:00.999936","REV_AT_EPOCH":"130","OBJECT_ID":"2023-046AF","TIME_SYSTEM":"UTC","OBJECT_TYPE":"PAYLOAD","GP_ID":"229647556","ELEMENT_SET_NO":"999","PERIAPSIS":"353.564","NORAD_CAT_ID":"56122","CLASSIFICATION_TYPE":"U","BSTAR":"0.00006764600000","ARG_OF_PERICENTER":"273.1268","APOAPSIS":"356.441","INCLINATION":"43.0017","MEAN_MOTION_DOT":"0.00008430","SEMIMAJOR_AXIS":"6733.138","RA_OF_ASC_NODE":"215.2492","COUNTRY_CODE":"US","SITE":"AFETR","OBJECT_NAME":"STARLINK-6094"},{"MEAN_MOTION":"15.71347172","FILE":"3882049","TLE_LINE1":"1 56123U 23046AH  23096.91667824  .00040830  00000-0  31339-3 0  9992","DECAY_DATE":null,"PERIOD":"91.641","REF_FRAME":"TEME","MEAN_ANOMALY":"124.2190","CENTER_NAME":"EARTH","MEAN_ELEMENT_THEORY":"SGP4","TLE_LINE2":"2 56123  43.0026 215.2379 0001594 276.6308 124.2190 15.71347172  1305","ECCENTRICITY":"0.00015940","EPHEMERIS_TYPE":"0","MEAN_MOTION_DDOT":"0.0000000000000","RCS_SIZE":null,"EPOCH":"2023-04-06T22:00:00.999936","LAUNCH_DATE":"2023-03-29","TIME_SYSTEM":"UTC","OBJECT_ID":"2023-046AH","REV_AT_EPOCH":"130","PERIAPSIS":"353.975","ELEMENT_SET_NO":"999","GP_ID":"229647521","OBJECT_TYPE":"PAYLOAD","ARG_OF_PERICENTER":"276.6308","BSTAR":"0.00031339000000","NORAD_CAT_ID":"56123","CLASSIFICATION_TYPE":"U","OBJECT_NAME":"STARLINK-6115","SITE":"AFETR","COUNTRY_CODE":"US","RA_OF_ASC_NODE":"215.2379","SEMIMAJOR_AXIS":"6733.183","MEAN_MOTION_DOT":"0.00040830","INCLINATION":"43.0026","APOAPSIS":"356.121"},{"ARG_OF_PERICENTER":"280.7242","CLASSIFICATION_TYPE":"U","NORAD_CAT_ID":"56124","BSTAR":"-0.00006837700000","RA_OF_ASC_NODE":"215.2446","COUNTRY_CODE":"US","SITE":"AFETR","OBJECT_NAME":"STARLINK-6126","APOAPSIS":"356.086","INCLINATION":"43.0021","MEAN_MOTION_DOT":"-0.00009414","SEMIMAJOR_AXIS":"6733.114","OBJECT_ID":"2023-046AJ","TIME_SYSTEM":"UTC","REV_AT_EPOCH":"130","PERIAPSIS":"353.872","OBJECT_TYPE":"PAYLOAD","GP_ID":"229647692","ELEMENT_SET_NO":"999","EPHEMERIS_TYPE":"0","MEAN_MOTION_DDOT":"0.0000000000000","ECCENTRICITY":"0.00016440","TLE_LINE2":"2 56124  43.0021 215.2446 0001644 280.7242 117.1456 15.71371204  1304","RCS_SIZE":null,"EPOCH":"2023-04-06T22:00:00.999936","LAUNCH_DATE":"2023-03-29","FILE":"3882049","MEAN_MOTION":"15.71371204","TLE_LINE1":"1 56124U 23046AJ  23096.91667824 -.00009414  00000-0 -68377-4 0  9991","PERIOD":"91.640","DECAY_DATE":null,"CENTER_NAME":"EARTH","MEAN_ANOMALY":"117.1456","MEAN_ELEMENT_THEORY":"SGP4","REF_FRAME":"TEME"},{"EPOCH":"2023-04-06T22:00:00.999936","LAUNCH_DATE":"2023-03-29","ECCENTRICITY":"0.00015550","TLE_LINE2":"2 56125  43.0026 215.2394 0001555 271.3370 128.9156 15.71363809  1300","EPHEMERIS_TYPE":"0","MEAN_MOTION_DDOT":"0.0000000000000","RCS_SIZE":null,"DECAY_DATE":null,"PERIOD":"91.640","REF_FRAME":"TEME","MEAN_ELEMENT_THEORY":"SGP4","MEAN_ANOMALY":"128.9156","CENTER_NAME":"EARTH","MEAN_MOTION":"15.71363809","FILE":"3882049","TLE_LINE1":"1 56125U 23046AK  23096.91667824  .00005259  00000-0  43510-4 0  9995","OBJECT_NAME":"STARLINK-6119","SITE":"AFETR","RA_OF_ASC_NODE":"215.2394","COUNTRY_CODE":"US","SEMIMAJOR_AXIS":"6733.135","MEAN_MOTION_DOT":"0.00005259","INCLINATION":"43.0026","APOAPSIS":"356.047","ARG_OF_PERICENTER":"271.3370","BSTAR":"0.00004351000000","NORAD_CAT_ID":"56125","CLASSIFICATION_TYPE":"U","PERIAPSIS":"353.953","ELEMENT_SET_NO":"999","GP_ID":"229647615","OBJECT_TYPE":"PAYLOAD","TIME_SYSTEM":"UTC","OBJECT_ID":"2023-046AK","REV_AT_EPOCH":"130"},{"PERIOD":"91.641","DECAY_DATE":null,"MEAN_ANOMALY":"126.4754","MEAN_ELEMENT_THEORY":"SGP4","CENTER_NAME":"EARTH","REF_FRAME":"TEME","FILE":"3882049","MEAN_MOTION":"15.71357175","TLE_LINE1":"1 56126U 23046AL  23096.91667824  .00016921  00000-0  13221-3 0  9999","EPOCH":"2023-04-06T22:00:00.999936","LAUNCH_DATE":"2023-03-29","EPHEMERIS_TYPE":"0","MEAN_MOTION_DDOT":"0.0000000000000","TLE_LINE2":"2 56126  43.0023 215.2360 0001848 274.9756 126.4754 15.71357175  1309","ECCENTRICITY":"0.00018480","RCS_SIZE":null,"PERIAPSIS":"353.775","OBJECT_TYPE":"PAYLOAD","GP_ID":"229647682","ELEMENT_SET_NO":"999","OBJECT_ID":"2023-046AL","TIME_SYSTEM":"UTC","REV_AT_EPOCH":"130","COUNTRY_CODE":"US","RA_OF_ASC_NODE":"215.2360","SITE":"AFETR","OBJECT_NAME":"STARLINK-6124","APOAPSIS":"356.264","INCLINATION":"43.0023","MEAN_MOTION_DOT":"0.00016921","SEMIMAJOR_AXIS":"6733.154","ARG_OF_PERICENTER":"274.9756","CLASSIFICATION_TYPE":"U","NORAD_CAT_ID":"56126","BSTAR":"0.00013221000000"},{"REV_AT_EPOCH":"130","TIME_SYSTEM":"UTC","OBJECT_ID":"2023-046AM","OBJECT_TYPE":"PAYLOAD","ELEMENT_SET_NO":"999","GP_ID":"229647648","PERIAPSIS":"353.830","CLASSIFICATION_TYPE":"U","NORAD_CAT_ID":"56127","BSTAR":"0.00001505900000","ARG_OF_PERICENTER":"282.2898","INCLINATION":"43.0025","APOAPSIS":"356.171","SEMIMAJOR_AXIS":"6733.135","MEAN_MOTION_DOT":"0.00001524","RA_OF_ASC_NODE":"215.2321","COUNTRY_CODE":"US","OBJECT_NAME":"STARLINK-6104","SITE":"AFETR","TLE_LINE1":"1 56127U 23046AM  23096.91667824  .00001524  00000-0  15059-4 0  9995","FILE":"3882049","MEAN_MOTION":"15.71363775","MEAN_ANOMALY":"120.9416","CENTER_NAME":"EARTH","MEAN_ELEMENT_THEORY":"SGP4","REF_FRAME":"TEME","DECAY_DATE":null,"PERIOD":"91.640","RCS_SIZE":null,"MEAN_MOTION_DDOT":"0.0000000000000","EPHEMERIS_TYPE":"0","ECCENTRICITY":"0.00017380","TLE_LINE2":"2 56127  43.0025 215.2321 0001738 282.2898 120.9416 15.71363775  1303","LAUNCH_DATE":"2023-03-29","EPOCH":"2023-04-06T22:00:00.999936"},{"ARG_OF_PERICENTER":"275.5300","BSTAR":"0.00004513800000","CLASSIFICATION_TYPE":"U","NORAD_CAT_ID":"56128","SITE":"AFETR","OBJECT_NAME":"STARLINK-6122","COUNTRY_CODE":"US","RA_OF_ASC_NODE":"215.2406","SEMIMAJOR_AXIS":"6733.135","MEAN_MOTION_DOT":"0.00005473","INCLINATION":"43.0023","APOAPSIS":"356.239","OBJECT_ID":"2023-046AN","TIME_SYSTEM":"UTC","REV_AT_EPOCH":"130","PERIAPSIS":"353.762","ELEMENT_SET_NO":"999","GP_ID":"229647567","OBJECT_TYPE":"PAYLOAD","ECCENTRICITY":"0.00018400","TLE_LINE2":"2 56128  43.0023 215.2406 0001840 275.5300 124.1284 15.71363764  1300","MEAN_MOTION_DDOT":"0.0000000000000","EPHEMERIS_TYPE":"0","RCS_SIZE":null,"EPOCH":"2023-04-06T22:00:00.999936","LAUNCH_DATE":"2023-03-29","MEAN_MOTION":"15.71363764","FILE":"3882049","TLE_LINE1":"1 56128U 23046AN  23096.91667824  .00005473  00000-0  45138-4 0  9994","DECAY_DATE":null,"PERIOD":"91.640","REF_FRAME":"TEME","MEAN_ANOMALY":"124.1284","CENTER_NAME":"EARTH","MEAN_ELEMENT_THEORY":"SGP4"}];
